STARLINK-1896           
1 46760U 20074X   23267.65513668  .00007033  00000+0  49068-3 0  9998
2 46760  53.0553  43.5615 0001379  81.6276 278.4869 15.06392270161265
STARLINK-1903           
1 46764U 20074AB  23267.64776199  .00030889  00000+0  20809-2 0  9997
2 46764  53.0554  43.5952 0001536  62.9509 297.1636 15.06446225161282
STARLINK-1906           
1 46765U 20074AC  23268.10114202 -.00007559  00000+0 -48923-3 0  9999
2 46765  53.0556  41.5570 0001073 109.8695 250.2410 15.06389629161051
STARLINK-1916           
1 46766U 20074AD  23268.09377345  .00011526  00000+0  79160-3 0  9991
2 46766  53.0543  41.5931 0001353  94.5274 265.5870 15.06390717161063
STARLINK-1917           
1 46767U 20074AE  23267.65881689  .00031544  00000+0  21240-2 0  9991
2 46767  53.0545  43.5462 0001196  90.3351 269.7775 15.06453759161260
STARLINK-1918           
1 46768U 20074AF  23267.66251368  .00003764  00000+0  27153-3 0  9991
2 46768  53.0554  43.5293 0001491  89.6614 270.4546 15.06389732161268
STARLINK-1932           
1 46770U 20074AH  23268.06802146  .00006242  00000+0  43738-3 0  9996
2 46770  53.0562  42.2604 0002440  73.8121 286.3137 15.06419067161330
STARLINK-1936           
1 46772U 20074AK  23268.06700540  .00002569  00000+0  19121-3 0  9990
2 46772  53.0562  41.7034 0001123 108.3372 251.7740 15.06417489161345
STARLINK-1798           
1 46779U 20074AS  23268.03157535  .00009690  00000+0  66856-3 0  9993
2 46779  53.0559  16.8724 0001948  65.1283 294.9909 15.06397744161384
STARLINK-1832           
1 46780U 20074AT  23267.68877488  .00025816  00000+0  17438-2 0  9990
2 46780  53.0556  18.4127 0001291  88.8263 271.2874 15.06440079161614
STARLINK-1834           
1 46781U 20074AU  23267.63995044  .00006991  00000+0  48777-3 0  9999
2 46781  53.0556  28.6323 0001226  84.3566 275.7563 15.06401167161474
STARLINK-1835           
1 46782U 20074AV  23267.54502651  .00016820  00000+0  11449-2 0  9995
2 46782  53.0551  19.0558 0001315  79.4151 280.6986 15.06415403161313
STARLINK-1851           
1 46783U 20074AW  23267.69245998  .00020121  00000+0  13648-2 0  9992
2 46783  53.0545  18.3944 0001278  91.2418 268.8717 15.06427744161618
STARLINK-1882           
1 46784U 20074AX  23267.82789961  .00015476  00000+0  10550-2 0  9997
2 46784  53.0554  17.7748 0001255  91.6286 268.4847 15.06420755161633
STARLINK-1883           
1 46785U 20074AY  23267.54869733  .00010140  00000+0  69816-3 0  9996
2 46785  53.0549  19.0389 0001408  95.6085 264.5064 15.06424615161272
STARLINK-1893           
1 46786U 20074AZ  23267.52842932  .00039167  00000+0  26292-2 0  9997
2 46786  53.0553 359.1328 0001601  61.8595 298.2555 15.06464562161550
STARLINK-1899           
1 46787U 20074BA  23267.52106186  .00020264  00000+0  13743-2 0  9997
2 46787  53.0556 359.1673 0001521  97.2975 262.8187 15.06429590161553
STARLINK-1929           
1 46788U 20074BB  23267.58004233  .00022506  00000+0  15238-2 0  9996
2 46788  53.0551 358.9019 0001440 101.2165 258.8985 15.06428892161888
STARLINK-1930           
1 46789U 20074BC  23267.60309995  .00001276  00000+0  10450-3 0  9996
2 46789  53.0565  28.9578 0001351  91.9695 268.1448 15.06403547161464
STARLINK-1931           
1 46790U 20074BD  23268.03064714  .00006791  00000+0  47410-3 0  9996
2 46790  53.0558  26.8738 0001372 106.7819 253.3321 15.06421757161200
STARLINK-1933           
1 46791U 20074BE  23267.64728458  .00002490  00000+0  18591-3 0  9995
2 46791  53.0557  28.5940 0001182  92.9670 267.1454 15.06421765161472
STARLINK-1934           
1 46792U 20074BF  23267.54132748  .00031012  00000+0  20886-2 0  9997
2 46792  53.0562  19.0749 0001194  85.3657 274.7468 15.06455098161267
STARLINK-1941           
1 46793U 20074BG  23268.03433507  .00008242  00000+0  57145-3 0  9998
2 46793  53.0558  26.8611 0001390 101.4675 258.6470 15.06406159161207
STARLINK-1942           
1 46794U 20074BH  23268.04170986  .00001559  00000+0  12353-3 0  9995
2 46794  53.0548  26.8263 0001447 103.6190 256.4960 15.06400871161204
STARLINK-1944           
1 46796U 20074BK  23267.75143408  .00025760  00000+0  17401-2 0  9991
2 46796  53.0557  18.1332 0001380  83.5205 276.5941 15.06439585161628
STARLINK-1948           
1 46798U 20074BM  23267.78320925  .00016819  00000+0  11454-2 0  9994
2 46798  53.0551  42.9855 0001410 104.8110 255.3035 15.06397028161281
COSMOS 2547 [GLONASS-K] 
1 46805U 20075A   23267.23582273  .00000042  00000+0  00000+0 0  9993
2 46805  64.6145 225.8346 0008146 243.8682 116.0382  2.13102782 22666
YAOGAN-30 U             
1 46807U 20076A   23267.68641810  .00004031  00000+0  38384-3 0  9990
2 46807  34.9960   2.1518 0001100  52.3205 307.7600 14.92909211158582
YAOGAN-30 V             
1 46808U 20076B   23267.72966587  .00004246  00000+0  40357-3 0  9998
2 46808  34.9964   1.6003 0002579 320.1988  39.8528 14.92959302158707
YAOGAN-30 W             
1 46809U 20076C   23267.70854171  .00003972  00000+0  37781-3 0  9994
2 46809  34.9978   1.5274 0006878  35.1400 324.9758 14.92938041158610
TIANQI-6                
1 46810U 20076D   23267.63235539  .00004598  00000+0  41903-3 0  9995
2 46810  35.0038 347.3750 0012981 104.6715 255.5430 14.94547952158743
FLOCK 4V-25             
1 46812U 20061BP  23267.82508795  .00042079  00000+0  85407-3 0  9992
2 46812  97.3357 340.8304 0002191 226.2904 133.8165 15.46235887161944
FLOCK 4E'-7             
1 46814U 20077B   23267.77153900  .00031078  00000+0  60049-3 0  9991
2 46814  97.3576 334.9755 0006877 189.2846 170.8278 15.47707618161607
FLOCK 4E'-9             
1 46815U 20077C   23267.89799262  .00170312  00000+0  29640-2 0  9998
2 46815  97.3519 330.4743 0009127 204.4853 155.5966 15.50116888161344
FLOCK 4E'-8             
1 46816U 20077D   23267.73950917  .00035941  00000+0  68384-3 0  9995
2 46816  97.3605 336.5121 0007410 158.9063 201.2495 15.48119401161681
FLOCK 4E'-5             
1 46817U 20077E   23267.74547172  .00037458  00000+0  72617-3 0  9991
2 46817  97.3590 335.7587 0007578 170.2450 189.8949 15.47568639161634
CE-SAT IIB              
1 46818U 20077F   23268.09004101  .00011253  00000+0  45652-3 0  9995
2 46818  97.3573 326.4793 0011435 197.1920 162.8932 15.24721345161081
FLOCK 4E'-3             
1 46819U 20077G   23267.73513713  .00040876  00000+0  79065-3 0  9998
2 46819  97.3573 335.4284 0008033 167.5513 192.5937 15.47611236161634
FLOCK 4E'-4             
1 46821U 20077J   23267.90082913  .00250393  00000+0  34286-2 0  9995
2 46821  97.3563 333.1947 0009527 191.0804 169.0242 15.56492625161447
FLOCK 4E'-6             
1 46822U 20077K   23268.15019960  .00306769  00000+0  49470-2 0  9996
2 46822  97.3544 331.7268 0008599 193.2416 166.8612 15.51786117161452
NAVSTAR 80 (USA 309)    
1 46826U 20078A   23267.29164479  .00000047  00000+0  00000+0 0  9994
2 46826  54.3034 251.2540 0036310 194.9942 298.5067  2.00562657 21516
NUSAT-12 (DOROTHY)      
1 46827U 20079A   23268.05573030  .02518627  22638-5  13332-2 0  9990
2 46827  97.1124 342.9648 0009010 266.8239  93.2019 16.19993627162247
NUSAT-9 (ALICE)         
1 46828U 20079B   23268.11417777  .00975660  48924-3  16595-2 0  9993
2 46828  97.1072 342.0410 0005923 255.7754 104.2868 16.02685352162303
NUSAT-11 (CORA)         
1 46829U 20079C   23268.12321578  .00639961  17822-3  14845-2 0  9998
2 46829  97.1183 342.5767 0004058 263.9593  96.1222 15.97138170162281
NUSAT-10 (CAROLINE)     
1 46832U 20079F   23268.11887805  .00320760  00000+0  13358-2 0  9999
2 46832  97.1359 342.6424 0001808 261.5648  98.5418 15.84894074162186
NUSAT-13 (EMMY)         
1 46833U 20079G   23268.10646717  .00354600  00000+0  13105-2 0  9994
2 46833  97.1338 342.4380 0001009 238.5284 121.5889 15.87297899162179
NUSAT-17 (MARY)         
1 46835U 20079J   23268.14498909  .00550869  12199-3  16394-2 0  9992
2 46835  97.1347 342.5261 0002531 246.7884 113.3124 15.92446108162185
NUSAT-18 (VERA)         
1 46836U 20079K   23268.10665429  .01241173  98264-3  13938-2 0  9996
2 46836  97.1240 344.1663 0005809 261.7665  98.2960 16.09587475162289
BEIHANGKONGSHI 1        
1 46838U 20079M   23268.13059407  .00149069  00000+0  13057-2 0  9993
2 46838  97.1428 342.4214 0002420 115.1736 244.9777 15.68412415162178
TIANQI-11               
1 46904U 20080A   23265.94847741  .00192204  00000+0  13970-2 0  9994
2 46904  97.5063  49.2742 0004800 189.3125 290.6992 15.72774946160729
RISAT-2BR2              
1 46905U 20081A   23267.76460452  .00006843  00000+0  56593-3 0  9990
2 46905  36.9012   8.2286 0005466 319.9619  40.0718 14.98577875157769
KSM1-C                  
1 46906U 20081B   23267.68896941  .00007155  00000+0  50380-3 0  9993
2 46906  36.8960 344.3287 0004880 230.9008 129.1300 15.04669180157933
KSM1-D                  
1 46907U 20081C   23268.09227645  .00007078  00000+0  49990-3 0  9998
2 46907  36.9005 342.2969 0006969 253.7568 106.2407 15.04554463158069
LEMUR-2-OZARAK          
1 46908U 20081D   23267.50972781  .00027689  00000+0  14704-2 0  9996
2 46908  36.9003 326.7194 0005435 280.3059  79.7073 15.14509149158192
LEMUR-2-JINDRA          
1 46909U 20081E   23267.50680002  .00034285  00000+0  16781-2 0  9996
2 46909  36.8995 320.2107 0004920 290.9162  69.1058 15.17320803158271
LEMUR-2-WALLACE         
1 46910U 20081F   23267.54830847  .00031886  00000+0  16150-2 0  9990
2 46910  36.9000 322.3891 0005278 287.0145  73.0023 15.16141858158242
LEMUR-2-JEREMIAH        
1 46911U 20081G   23267.48728834  .00027128  00000+0  14493-2 0  9998
2 46911  36.9045 324.7891 0006946 292.6272  67.3739 15.14294730158228
KSM1-A                  
1 46912U 20081H   23267.67655211  .00006877  00000+0  48474-3 0  9993
2 46912  36.8996 343.5452 0004493 315.0432  44.9946 15.04650224157973
R2                      
1 46913U 20081J   23267.61679751  .00007008  00000+0  49077-3 0  9990
2 46913  36.9041 342.4913 0011254 268.9547  90.9906 15.04845830160781
